JUGNU                   
1 37839U 11058B   26041.19552405  .00000494  00000+0  11826-3 0  9996
2 37839  19.9625 359.9241 0018790 113.8858  22.0980 14.13728616741031
SRMSAT                  
1 37841U 11058D   26041.18270889  .00000464  00000+0  10796-3 0  9993
2 37841  19.9717 108.1847 0011511 246.8792 139.9118 14.11537310739855
SUOMI NPP               
1 37849U 11061A   26041.11311814  .00000099  00000+0  67877-4 0  9999
2 37849  98.7837 342.9404 0001507  16.2285 343.8939 14.19535397740410
YAOGAN-12               
1 37875U 11066B   26041.16964561  .00004899  00000+0  19797-3 0  9990
2 37875  97.1337  85.7298 0009019 325.5724  34.4929 15.25149659792677
ZIYUAN 3-01 (ZY 3-01)   
1 38046U 12001A   26041.16854008  .00213462  00000+0  89035-3 0  9995
2 38046  97.1590 114.5372 0000756 160.5125 199.6175 15.85122711784320
BEIDOU-2 M4             
1 38251U 12018B   26040.86183222 -.00000079  00000+0  00000+0 0  9990
2 38251  55.7676 308.3924 0013457 285.5826  74.3127  1.86229716 93572
ARIRANG-3 (KOMPSAT-3)   
1 38338U 12025B   26041.15635438  .00000234  00000+0  55971-4 0  9992
2 38338  98.1679   0.8446 0006555 141.9491 218.2174 14.61989037732789
HORYU-2                 
1 38340U 12025D   26040.83306839  .00005291  00000+0  55322-3 0  9996
2 38340  98.1971 168.7970 0007500 233.7975 126.2549 14.90094219729759
CSSWE                   
1 38761U 12048D   26040.71088244  .00036563  00000+0  90752-3 0  9994
2 38761  64.6626 163.1121 0074610 211.0097 148.6623 15.37281489 96755
CP5                     
1 38763U 12048F   26040.80312263  .00020784  00000+0  74011-3 0  9995
2 38763  64.6458 212.4940 0103900 213.5697 145.8820 15.23941825 97329
METOP-B                 
1 38771U 12049A   26041.13332710  .00000121  00000+0  75135-4 0  9993
2 38771  98.6703  95.0596 0002268  19.3583 340.7680 14.21435178695219
SJ-9A                   
1 38860U 12056A   26041.11020042  .00001614  00000+0  19380-3 0  9997
2 38860  97.6563  17.7963 0024663 318.6008  41.3338 14.85137902680728
COSMOS 2484 (RODNIK-S 6)
1 39059U 13001C   26041.12674196  .00000065  00000+0  39573-3 0  9990
2 39059  82.5036 300.9161 0026095 312.7594  47.1291 12.42935192592777
SARAL                   
1 39086U 13009A   26041.15703772  .00000136  00000+0  65871-4 0  9994
2 39086  98.5535 229.3189 0000992 330.3009  29.8119 14.32818723677419
AAUSAT 3                
1 39087U 13009B   26040.45450751  .00000976  00000+0  32512-3 0  9990
2 39087  98.3664 227.1677 0010660 232.9289 127.0926 14.39745025678799
STRAND-1                
1 39090U 13009E   26040.43555010  .00000449  00000+0  16556-3 0  9991
2 39090  98.3858 223.8335 0007628 250.4682 109.5682 14.37069035678718
BRITE-AUSTRIA           
1 39091U 13009F   26041.02137581  .00000271  00000+0  10702-3 0  9997
2 39091  98.3926 223.6247 0009087 258.6240 101.3926 14.36479114678797
UNIBRITE                
1 39092U 13009G   26041.09190675  .00000276  00000+0  10903-3 0  9996
2 39092  98.3965 223.7729 0008009 254.0992 105.9312 14.36350554678744
AIST-2 (RS43)           
1 39133U 13015D   26041.14504008  .00007458  00000+0  30605-3 0  9994
2 39133  64.8706 312.2644 0025544 250.2764 109.5610 15.24651946704523
GAOFEN-1                
1 39150U 13018A   26041.20212277 -.00000434  00000+0 -54832-4 0  9995
2 39150  97.9225 115.7818 0016544 319.6818  40.3165 14.76498608689501
NEE-01 PEGASO           
1 39151U 13018B   26040.34997540  .00004003  00000+0  39177-3 0  9991
2 39151  98.1003 180.4994 0012042 221.7625 138.2675 14.92861530691626
TURKSAT-3USAT           
1 39152U 13018C   26040.79549413  .00005261  00000+0  47981-3 0  9992
2 39152  97.7947 132.2474 0012848 159.7272 200.4461 14.95468942692044
CUBEBUG-1 (CAPITAN BETO)
1 39153U 13018D   26040.95694601  .00005054  00000+0  45208-3 0  9991
2 39153  98.1466 195.4390 0011641 205.5641 154.5004 14.96299123692039
PROBA-V                 
1 39159U 13021A   26040.83217553  .00000101  00000+0  62426-4 0  9995
2 39159  98.3463  25.8106 0004932 134.0797 226.0789 14.23566201662999
ESTCUBE 1               
1 39161U 13021C   26041.12465548  .00001951  00000+0  25850-3 0  9993
2 39161  97.7479  99.7011 0009580  73.9671 286.2596 14.80954660686211
ARIRANG-5 (KOMPSAT-5)   
1 39227U 13042A   26041.13523304  .00002964  00000+0  21589-3 0  9995
2 39227  97.6178 229.5992 0002139 193.4075 166.7095 15.04527412684750
GONETS-M 5              
1 39249U 13048A   26041.17140361 -.00000025  00000+0 -25082-3 0  9997
2 39249  82.4783  62.5656 0017545 127.5392 232.7285 12.42887387563106
GONETS-M 7              
1 39251U 13048C   26041.13666187  .00000003  00000+0 -50325-4 0  9999
2 39251  82.4848  65.4443 0018351 128.8569 231.4151 12.42909140563057
FENGYUN 3C              
1 39260U 13052A   26041.18324145  .00000142  00000+0  93551-4 0  9995
2 39260  98.4846  20.9849 0015329  32.8275 327.3849 14.15719338640592
CASSIOPE                
1 39265U 13055A   26041.12544642  .00043862 -51985-6  54158-3 0  9994
2 39265  80.9152 220.0201 0324331 128.0472 235.0505 15.16424497648358
APRIZESAT 7             
1 39416U 13066A   26040.81150258  .00002348  00000+0  23960-3 0  9990
2 39416  97.7549 356.0157 0034398 273.9157  85.8129 14.91179483662244
ZACUBE-1 (TSHEPISOSAT)  
1 39417U 13066B   26041.11585691  .00007254  00000+0  57824-3 0  9995
2 39417  97.8176   2.8085 0040620 315.2681  44.5268 14.99989381661671
APRIZESAT 8             
1 39425U 13066K   26040.80327886  .00002040  00000+0  22791-3 0  9992
2 39425  97.8073 350.1886 0045887 347.1106  12.8934 14.87328986660739
CINEMA-3 (KHUSAT-2)     
1 39426U 13066L   26040.74065782  .00002090  00000+0  27929-3 0  9993
2 39426  97.8440 316.2727 0089031 265.2813  93.8226 14.77897174655623
TRITON-1                
1 39427U 13066M   26041.17481139  .00004944  00000+0  60195-3 0  9992
2 39427  97.8300 313.8994 0089697 288.7399  70.4096 14.81022941655280
DELFI-N3XT              
1 39428U 13066N   26040.74069229  .00009002  00000+0  82030-3 0  9999
2 39428  97.8349 321.3491 0075349 270.7416  88.5171 14.93199353655593
GOMX-1                  
1 39430U 13066Q   26041.17098015  .00002482  00000+0  37925-3 0  9993
2 39430  97.6583 249.5900 0130573 125.0081 236.3463 14.68980031651261
BRITE-PL1 (LEM)         
1 39431U 13066R   26040.84962225  .00000689  00000+0  14629-3 0  9993
2 39431  97.7803 162.4405 0191527  47.6166 314.1064 14.51174965645460
ICUBE-1                 
1 39432U 13066S   26040.95488914  .00016867  00000+0  73478-3 0  9996
2 39432  97.5617  25.4431 0020191  61.4552 298.8713 15.22091749665031
HUMSAT-D                
1 39433U 13066T   26040.99898455  .00291595  00000+0  16303-2 0  9992
2 39433  97.4935  51.4494 0001675  96.7795 263.3662 15.78557767667061
VELOX-PII               
1 39438U 13066Y   26040.80409803  .00005263  00000+0  50745-3 0  9996
2 39438  97.8597 352.2158 0055277  46.2941 314.2837 14.92183599658831
FIRST-MOVE              
1 39439U 13066Z   26040.96174951  .00528520  00000+0  24144-2 0  9996
2 39439  97.7420  36.1980 0013481 150.7009 209.5018 15.82304032662776
CUBEBUG-2 (LO-74)       
1 39440U 13066AA  26040.81289406  .00005282  00000+0  50055-3 0  9990
2 39440  97.8777 349.4592 0060862  89.4681 271.3511 14.92615122657989
NEE-02 KRYSAOR          
1 39441U 13066AB  26040.77150769  .00002772  00000+0  31059-3 0  9999
2 39441  97.8785 341.0341 0068143 126.5820 234.1692 14.85987094657278
FUNCUBE-1 (AO-73)       
1 39444U 13066AE  26041.16339002  .00010202  00000+0  66900-3 0  9995
2 39444  97.8144  10.2563 0035447 276.3424  83.3767 15.07365632660517
HINCUBE                 
1 39445U 13066AF  26040.82989773  .00009691  00000+0  65659-3 0  9994
2 39445  97.7834   7.7376 0032117 284.7165  75.0503 15.06264411660341
UWE-3                   
1 39446U 13066AG  26041.10568374  .00005850  00000+0  51561-3 0  9997
2 39446  97.8560 356.5478 0051297  25.2512 335.1200 14.95820341658574
SMDC ONE 2.4            
1 39469U 13072H   26040.45136094  .00021810  00000+0  91495-3 0  9990
2 39469 120.4906 220.0655 0142441 234.9722 123.7909 15.14756887 98459
CP8 (IPEX)              
1 39471U 13072K   26041.13149265  .00014046  00000+0  72597-3 0  9998
2 39471 120.4627 176.5682 0164733 221.3665 137.4823 15.05687303 96081
COSMOS 2488 (RODNIK-S 7)
1 39483U 13076A   26041.17609875 -.00000156  00000+0 -11979-2 0  9992
2 39483  82.4796 247.8336 0019545  14.5429 345.6209 12.42900896550119
COSMOS 2489 (RODNIK-S 8)
1 39484U 13076B   26041.14869547 -.00000018  00000+0 -20337-3 0  9990
2 39484  82.4833 249.1885 0021382  14.2953 345.8727 12.42875033550163
COSMOS 2490 (RODNIK-S 9)
1 39485U 13076C   26041.12036865 -.00000060  00000+0 -50149-3 0  9999
2 39485  82.4780 247.3274 0021693  30.0728 330.1593 12.42872693550097
AIST-1 (RS41)           
1 39492U 13078C   26041.19884813  .00001699  00000+0  15030-3 0  9997
2 39492  82.4152  33.8576 0016657 349.5294  10.5577 14.95628442656269
KAZEOSAT 1              
1 39731U 14024A   26041.18435661  .00000150  00000+0  58571-4 0  9996
2 39731  98.3333 116.7314 0001065  95.4112 264.7199 14.42068463620252
COSMOS 2496 (RODNIK-S *)
1 39761U 14028A   26041.15843862 -.00000012  00000+0 -16045-3 0  9994
2 39761  82.4468 188.2724 0019412 358.3538   1.7475 12.42872902531734
COSMOS 2497 (RODNIK-S *)
1 39762U 14028B   26041.13486913  .00000099  00000+0  64163-3 0  9990
2 39762  82.4514 189.9273 0019917 353.3675   6.7138 12.42873834531737
COSMOS 2498 (RODNIK-S *)
1 39763U 14028C   26041.12176876  .00000119  00000+0  78421-3 0  9999
2 39763  82.4476 188.4786 0020598 352.7780   7.2999 12.42975710531765
COSMOS 2499 (RS47)      
1 39765U 14028E   26041.15801991  .00000009  00000+0  11571-5 0  9990
2 39765  82.4544 338.1548 0230722 300.0796  57.7607 12.82900614548734
HODOYOSHI-4             
1 40011U 14033B   26041.13713831  .00001751  00000+0  19668-3 0  9993
2 40011  97.5435 232.1071 0024114  10.0360 350.1333 14.87741527629910
